CCSDS_OMM_VERS = 2.0
CREATION_DATE  = 
ORIGINATOR     = 

OBJECT_NAME    = ZORKY-2M 7
OBJECT_ID      = 2025-313W
CENTER_NAME    = EARTH
REF_FRAME      = TEME
TIME_SYSTEM    = UTC
MEAN_ELEMENT_THEORY = SGP/SGP4

EPOCH          = 2026-01-13T06:41:54.307392
MEAN_MOTION    = 15.20134945
ECCENTRICITY   = .00154939
INCLINATION    = 97.4123
RA_OF_ASC_NODE = 90.4675
ARG_OF_PERICENTER = 182.7816
MEAN_ANOMALY   = 177.3336

EPHEMERIS_TYPE = 0
CLASSIFICATION_TYPE = U
NORAD_CAT_ID   = 67268
ELEMENT_SET_NO = 999
REV_AT_EPOCH   = 239
BSTAR          = .33604211E-3
MEAN_MOTION_DOT = .7222E-4
MEAN_MOTION_DDOT = 0

CCSDS_OMM_VERS = 2.0
CREATION_DATE  = 
ORIGINATOR     = 

OBJECT_NAME    = 2025-313X
OBJECT_ID      = 2025-313X
CENTER_NAME    = EARTH
REF_FRAME      = TEME
TIME_SYSTEM    = UTC
MEAN_ELEMENT_THEORY = SGP/SGP4

EPOCH          = 2026-01-13T06:40:43.867200
MEAN_MOTION    = 15.20308120
ECCENTRICITY   = .00153213
INCLINATION    = 97.4150
RA_OF_ASC_NODE = 90.4836
ARG_OF_PERICENTER = 181.2455
MEAN_ANOMALY   = 178.8744

EPHEMERIS_TYPE = 0
CLASSIFICATION_TYPE = U
NORAD_CAT_ID   = 67269
ELEMENT_SET_NO = 999
REV_AT_EPOCH   = 239
BSTAR          = .51200897E-3
MEAN_MOTION_DOT = .111E-3
MEAN_MOTION_DDOT = 0

CCSDS_OMM_VERS = 2.0
CREATION_DATE  = 
ORIGINATOR     = 

OBJECT_NAME    = SITRO-TD-3
OBJECT_ID      = 2025-313Y
CENTER_NAME    = EARTH
REF_FRAME      = TEME
TIME_SYSTEM    = UTC
MEAN_ELEMENT_THEORY = SGP/SGP4

EPOCH          = 2026-01-12T21:13:20.726688
MEAN_MOTION    = 15.20142192
ECCENTRICITY   = .001541
INCLINATION    = 97.4123
RA_OF_ASC_NODE = 90.0895
ARG_OF_PERICENTER = 184.4623
MEAN_ANOMALY   = 175.6477

EPHEMERIS_TYPE = 0
CLASSIFICATION_TYPE = U
NORAD_CAT_ID   = 67270
ELEMENT_SET_NO = 999
REV_AT_EPOCH   = 233
BSTAR          = .36861E-3
MEAN_MOTION_DOT = .7931E-4
MEAN_MOTION_DDOT = 0

CCSDS_OMM_VERS = 2.0
CREATION_DATE  = 
ORIGINATOR     = 

OBJECT_NAME    = 2025-313Z
OBJECT_ID      = 2025-313Z
CENTER_NAME    = EARTH
REF_FRAME      = TEME
TIME_SYSTEM    = UTC
MEAN_ELEMENT_THEORY = SGP/SGP4

EPOCH          = 2026-01-13T06:42:52.271424
MEAN_MOTION    = 15.20003156
ECCENTRICITY   = .00154771
INCLINATION    = 97.4118
RA_OF_ASC_NODE = 90.4677
ARG_OF_PERICENTER = 178.8783
MEAN_ANOMALY   = 181.2489

EPHEMERIS_TYPE = 0
CLASSIFICATION_TYPE = U
NORAD_CAT_ID   = 67271
ELEMENT_SET_NO = 999
REV_AT_EPOCH   = 239
BSTAR          = .21040954E-3
MEAN_MOTION_DOT = .4477E-4
MEAN_MOTION_DDOT = 0

CCSDS_OMM_VERS = 2.0
CREATION_DATE  = 
ORIGINATOR     = 

OBJECT_NAME    = 2025-313AA
OBJECT_ID      = 2025-313AA
CENTER_NAME    = EARTH
REF_FRAME      = TEME
TIME_SYSTEM    = UTC
MEAN_ELEMENT_THEORY = SGP/SGP4

EPOCH          = 2026-01-13T06:40:07.217184
MEAN_MOTION    = 15.20331016
ECCENTRICITY   = .00151976
INCLINATION    = 97.4123
RA_OF_ASC_NODE = 90.4685
ARG_OF_PERICENTER = 183.3139
MEAN_ANOMALY   = 176.7998

EPHEMERIS_TYPE = 0
CLASSIFICATION_TYPE = U
NORAD_CAT_ID   = 67272
ELEMENT_SET_NO = 999
REV_AT_EPOCH   = 239
BSTAR          = .44333729E-3
MEAN_MOTION_DOT = .9606E-4
MEAN_MOTION_DDOT = 0

CCSDS_OMM_VERS = 2.0
CREATION_DATE  = 
ORIGINATOR     = 

OBJECT_NAME    = 2025-313AB
OBJECT_ID      = 2025-313AB
CENTER_NAME    = EARTH
REF_FRAME      = TEME
TIME_SYSTEM    = UTC
MEAN_ELEMENT_THEORY = SGP/SGP4

EPOCH          = 2026-01-13T06:42:39.627648
MEAN_MOTION    = 15.19990237
ECCENTRICITY   = .00143541
INCLINATION    = 97.4136
RA_OF_ASC_NODE = 90.4704
ARG_OF_PERICENTER = 187.4253
MEAN_ANOMALY   = 172.6772

EPHEMERIS_TYPE = 0
CLASSIFICATION_TYPE = U
NORAD_CAT_ID   = 67273
ELEMENT_SET_NO = 999
REV_AT_EPOCH   = 239
BSTAR          = .15190936E-3
MEAN_MOTION_DOT = .321E-4
MEAN_MOTION_DDOT = 0

CCSDS_OMM_VERS = 2.0
CREATION_DATE  = 
ORIGINATOR     = 

OBJECT_NAME    = 2025-313AC
OBJECT_ID      = 2025-313AC
CENTER_NAME    = EARTH
REF_FRAME      = TEME
TIME_SYSTEM    = UTC
MEAN_ELEMENT_THEORY = SGP/SGP4

EPOCH          = 2026-01-13T06:41:19.360320
MEAN_MOTION    = 15.20149630
ECCENTRICITY   = .00151435
INCLINATION    = 97.4111
RA_OF_ASC_NODE = 90.4755
ARG_OF_PERICENTER = 182.3607
MEAN_ANOMALY   = 177.7559

EPHEMERIS_TYPE = 0
CLASSIFICATION_TYPE = U
NORAD_CAT_ID   = 67274
ELEMENT_SET_NO = 999
REV_AT_EPOCH   = 239
BSTAR          = .29259809E-3
MEAN_MOTION_DOT = .628E-4
MEAN_MOTION_DDOT = 0

CCSDS_OMM_VERS = 2.0
CREATION_DATE  = 
ORIGINATOR     = 

OBJECT_NAME    = 2025-313AD
OBJECT_ID      = 2025-313AD
CENTER_NAME    = EARTH
REF_FRAME      = TEME
TIME_SYSTEM    = UTC
MEAN_ELEMENT_THEORY = SGP/SGP4

EPOCH          = 2026-01-13T06:40:31.740960
MEAN_MOTION    = 15.20209650
ECCENTRICITY   = .00143417
INCLINATION    = 97.4086
RA_OF_ASC_NODE = 90.4715
ARG_OF_PERICENTER = 185.2779
MEAN_ANOMALY   = 174.8308

EPHEMERIS_TYPE = 0
CLASSIFICATION_TYPE = U
NORAD_CAT_ID   = 67275
ELEMENT_SET_NO = 999
REV_AT_EPOCH   = 239
BSTAR          = .3171128E-3
MEAN_MOTION_DOT = .6823E-4
MEAN_MOTION_DDOT = 0

CCSDS_OMM_VERS = 2.0
CREATION_DATE  = 
ORIGINATOR     = 

OBJECT_NAME    = 2025-313AE
OBJECT_ID      = 2025-313AE
CENTER_NAME    = EARTH
REF_FRAME      = TEME
TIME_SYSTEM    = UTC
MEAN_ELEMENT_THEORY = SGP/SGP4

EPOCH          = 2026-01-13T06:40:28.683264
MEAN_MOTION    = 15.20209197
ECCENTRICITY   = .00142935
INCLINATION    = 97.4091
RA_OF_ASC_NODE = 90.4720
ARG_OF_PERICENTER = 185.2890
MEAN_ANOMALY   = 174.8197

EPHEMERIS_TYPE = 0
CLASSIFICATION_TYPE = U
NORAD_CAT_ID   = 67276
ELEMENT_SET_NO = 999
REV_AT_EPOCH   = 239
BSTAR          = .28825718E-3
MEAN_MOTION_DOT = .6195E-4
MEAN_MOTION_DDOT = 0

CCSDS_OMM_VERS = 2.0
CREATION_DATE  = 
ORIGINATOR     = 

OBJECT_NAME    = 2025-313AF
OBJECT_ID      = 2025-313AF
CENTER_NAME    = EARTH
REF_FRAME      = TEME
TIME_SYSTEM    = UTC
MEAN_ELEMENT_THEORY = SGP/SGP4

EPOCH          = 2026-01-13T06:40:44.135904
MEAN_MOTION    = 15.20176193
ECCENTRICITY   = .00142932
INCLINATION    = 97.4093
RA_OF_ASC_NODE = 90.4723
ARG_OF_PERICENTER = 185.0926
MEAN_ANOMALY   = 175.0166

EPHEMERIS_TYPE = 0
CLASSIFICATION_TYPE = U
NORAD_CAT_ID   = 67277
ELEMENT_SET_NO = 999
REV_AT_EPOCH   = 239
BSTAR          = .27289313E-3
MEAN_MOTION_DOT = .5855E-4
MEAN_MOTION_DDOT = 0

CCSDS_OMM_VERS = 2.0
CREATION_DATE  = 
ORIGINATOR     = 

OBJECT_NAME    = 2025-313AG
OBJECT_ID      = 2025-313AG
CENTER_NAME    = EARTH
REF_FRAME      = TEME
TIME_SYSTEM    = UTC
MEAN_ELEMENT_THEORY = SGP/SGP4

EPOCH          = 2026-01-13T01:56:10.377024
MEAN_MOTION    = 15.20189152
ECCENTRICITY   = .00142321
INCLINATION    = 97.4096
RA_OF_ASC_NODE = 90.2792
ARG_OF_PERICENTER = 185.7152
MEAN_ANOMALY   = 174.3923

EPHEMERIS_TYPE = 0
CLASSIFICATION_TYPE = U
NORAD_CAT_ID   = 67278
ELEMENT_SET_NO = 999
REV_AT_EPOCH   = 237
BSTAR          = .24976562E-3
MEAN_MOTION_DOT = .5355E-4
MEAN_MOTION_DDOT = 0

CCSDS_OMM_VERS = 2.0
CREATION_DATE  = 
ORIGINATOR     = 

OBJECT_NAME    = GALAPAGOS-UTE-SWSU
OBJECT_ID      = 2025-313AH
CENTER_NAME    = EARTH
REF_FRAME      = TEME
TIME_SYSTEM    = UTC
MEAN_ELEMENT_THEORY = SGP/SGP4

EPOCH          = 2026-01-13T03:30:13.268160
MEAN_MOTION    = 15.20263517
ECCENTRICITY   = .00148159
INCLINATION    = 97.4107
RA_OF_ASC_NODE = 90.3465
ARG_OF_PERICENTER = 182.4414
MEAN_ANOMALY   = 177.6752

EPHEMERIS_TYPE = 0
CLASSIFICATION_TYPE = U
NORAD_CAT_ID   = 67279
ELEMENT_SET_NO = 999
REV_AT_EPOCH   = 237
BSTAR          = .28800253E-3
MEAN_MOTION_DOT = .62E-4
MEAN_MOTION_DDOT = 0

