ZORKY-2M 7              
1 67268U 25313W   26013.27910078  .00007222  00000+0  33604-3 0  9990
2 67268  97.4123  90.4675 0015493 182.7816 177.3336 15.20134945  2391
2025-313X               
1 67269U 25313X   26013.27828550  .00011100  00000+0  51201-3 0  9997
2 67269  97.4150  90.4836 0015321 181.2455 178.8744 15.20308120  2391
SITRO-TD-3              
1 67270U 25313Y   26012.88426767  .00007931  00000+0  36861-3 0  9991
2 67270  97.4123  90.0895 0015410 184.4623 175.6477 15.20142192  2332
2025-313Z               
1 67271U 25313Z   26013.27977166  .00004477  00000+0  21041-3 0  9996
2 67271  97.4118  90.4677 0015477 178.8783 181.2489 15.20003156  2394
2025-313AA              
1 67272U 25313AA  26013.27786131  .00009606  00000+0  44334-3 0  9996
2 67272  97.4123  90.4685 0015197 183.3139 176.7998 15.20331016  2398
2025-313AB              
1 67273U 25313AB  26013.27962532  .00003210  00000+0  15191-3 0  9992
2 67273  97.4136  90.4704 0014354 187.4253 172.6772 15.19990237  2390
2025-313AC              
1 67274U 25313AC  26013.27869630  .00006280  00000+0  29260-3 0  9990
2 67274  97.4111  90.4755 0015143 182.3607 177.7559 15.20149630  2398
2025-313AD              
1 67275U 25313AD  26013.27814515  .00006823  00000+0  31711-3 0  9990
2 67275  97.4086  90.4715 0014341 185.2779 174.8308 15.20209650  2396
2025-313AE              
1 67276U 25313AE  26013.27810976  .00006195  00000+0  28826-3 0  9993
2 67276  97.4091  90.4720 0014293 185.2890 174.8197 15.20209197  2391
2025-313AF              
1 67277U 25313AF  26013.27828861  .00005855  00000+0  27289-3 0  9990
2 67277  97.4093  90.4723 0014293 185.0926 175.0166 15.20176193  2393
2025-313AG              
1 67278U 25313AG  26013.08067566  .00005355  00000+0  24977-3 0  9993
2 67278  97.4096  90.2792 0014232 185.7152 174.3923 15.20189152  2372
GALAPAGOS-UTE-SWSU      
1 67279U 25313AH  26013.14598690  .00006200  00000+0  28800-3 0  9997
2 67279  97.4107  90.3465 0014815 182.4414 177.6752 15.20263517  2370
